NORAD_CAT_ID,OBJECT_NAME,OBJECT_TYPE,EPOCH,MEAN_MOTION,ECCENTRICITY,INCLINATION,RA_OF_ASC_NODE,ARG_OF_PERICENTER,MEAN_ANOMALY,BSTAR,MEAN_MOTION_DOT,MEAN_MOTION_DDOT,TLE_LINE0,TLE_LINE1,TLE_LINE2,SEMIMAJOR_AXIS,PERIOD,APOGEE,PERIGEE,DECAYED
49144.0,STARLINK-3100,PAYLOAD,2024-06-03 04:48:59,14.98333386,0.0002863,69.9991,119.432,268.7644,91.3187,5.7151e-05,5.89e-06,0.0,0 STARLINK-3100,1 49144U 21082Q   24155.20068714  .00000589  00000-0  57151-4 0  9995,2 49144  69.9991 119.4320 0002863 268.7644  91.3187 14.98333386149442,6950.182,96.107,574.037,570.058,0.0
49144.0,STARLINK-3100,PAYLOAD,2024-06-03 14:25:47,14.98328656,0.0002709,69.9994,118.4221,266.7748,93.3101,0.0001043,1.152e-05,0.0,0 STARLINK-3100,1 49144U 21082Q   24155.60124889  .00001152  00000-0  10430-3 0  9990,2 49144  69.9994 118.4221 0002709 266.7748  93.3101 14.98328656149505,6950.197,96.107,573.945,570.179,0.0
49144.0,STARLINK-3100,PAYLOAD,2024-06-03 20:50:20,14.98334042,0.0002675,69.9996,117.749,273.2106,86.8747,1.7049e-05,1.1e-06,0.0,0 STARLINK-3100,1 49144U 21082Q   24155.86828761  .00000110  00000-0  17049-4 0  9995,2 49144  69.9996 117.7490 0002675 273.2106  86.8747 14.98334042149543,6950.18,96.107,573.905,570.186,0.0
49144.0,STARLINK-3100,PAYLOAD,2024-06-04 03:14:52,14.98328514,0.0002914,69.9993,117.0755,272.1368,87.9458,9.8715e-05,1.085e-05,0.0,0 STARLINK-3100,1 49144U 21082Q   24156.13532829  .00001085  00000-0  98715-4 0  9994,2 49144  69.9993 117.0755 0002914 272.1368  87.9458 14.98328514149583,6950.197,96.107,574.088,570.037,0.0
49144.0,STARLINK-3100,PAYLOAD,2024-06-04 20:52:20,14.98334058,0.0002552,70.0,115.2224,277.1697,82.9171,2.914e-05,2.55e-06,0.0,0 STARLINK-3100,1 49144U 21082Q   24156.86968569  .00000255  00000-0  29140-4 0  9992,2 49144  70.0000 115.2224 0002552 277.1697  82.9171 14.98334058149693,6950.18,96.107,573.819,570.272,0.0
49144.0,STARLINK-3100,PAYLOAD,2024-06-05 04:53:01,14.98333235,0.0002752,69.9995,114.3831,266.4656,93.6188,4.9026e-06,-3.4e-07,0.0,0 STARLINK-3100,1 49144U 21082Q   24157.20348475 -.00000034  00000-0  49026-5 0  9991,2 49144  69.9995 114.3831 0002752 266.4656  93.6188 14.98333235149744,6950.183,96.107,573.961,570.135,0.0
49144.0,STARLINK-3100,PAYLOAD,2024-06-05 14:29:49,14.983324,0.0003146,69.9985,113.3709,271.4355,88.6444,-8.7211e-05,-1.134e-05,0.0,0 STARLINK-3100,1 49144U 21082Q   24157.60404596 -.00001134  00000-0 -87211-4 0  9992,2 49144  69.9985 113.3709 0003146 271.4355  88.6444 14.98332400149805,6950.185,96.107,574.237,569.864,0.0
49144.0,STARLINK-3100,PAYLOAD,2024-06-06 04:55:02,14.98328315,0.0003,69.999,111.8564,269.2829,90.7986,-5.0099e-05,-6.91e-06,0.0,0 STARLINK-3100,1 49144U 21082Q   24158.20488863 -.00000691  00000-0 -50099-4 0  9999,2 49144  69.9990 111.8564 0003000 269.2829  90.7986 14.98328315149897,6950.198,96.107,574.148,569.978,0.0
49144.0,STARLINK-3100,PAYLOAD,2024-06-06 14:31:50,14.98330169,0.0002751,70.0001,110.8459,269.8314,90.253,-3.0029e-05,-4.51e-06,0.0,0 STARLINK-3100,1 49144U 21082Q   24158.60544749 -.00000451  00000-0 -30029-4 0  9994,2 49144  70.0001 110.8459 0002751 269.8314  90.2530 14.98330169149959,6950.192,96.107,573.969,570.145,0.0
49144.0,STARLINK-3100,PAYLOAD,2024-06-07 14:33:51,14.98333171,0.0002883,70.0001,108.3212,260.5521,99.5312,-1.241e-05,-2.41e-06,0.0,0 STARLINK-3100,1 49144U 21082Q   24159.60684454 -.00000241  00000-0 -12410-4 0  9994,2 49144  70.0001 108.3212 0002883 260.5521  99.5312 14.98333171150107,6950.183,96.107,574.052,570.044,0.0
49144.0,STARLINK-3100,PAYLOAD,2024-06-07 22:34:31,14.98317858,0.0002963,69.9999,107.4792,266.0061,94.0759,0.00026899,3.117e-05,0.0,0 STARLINK-3100,1 49144U 21082Q   24159.94064781  .00003117  00000-0  26899-3 0  9994,2 49144  69.9999 107.4792 0002963 266.0061  94.0759 14.98317858150156,6950.23,96.108,574.155,570.036,0.0
49144.0,STARLINK-3100,PAYLOAD,2024-06-08 06:35:11,14.98344087,0.0002625,70.0001,106.6385,268.5366,91.5492,-3.0028e-05,-4.51e-06,0.0,0 STARLINK-3100,1 49144U 21082Q   24160.27443968 -.00000451  00000-0 -30028-4 0  9990,2 49144  70.0001 106.6385 0002625 268.5366  91.5492 14.98344087150208,6950.149,96.106,573.839,570.19,0.0
49144.0,STARLINK-3100,PAYLOAD,2024-06-08 22:36:33,14.98328331,0.0002059,70.0017,104.9567,268.3395,91.7528,-2.941e-06,-1.28e-06,0.0,0 STARLINK-3100,1 49144U 21082Q   24160.94205033 -.00000128  00000-0 -29410-5 0  9998,2 49144  70.0017 104.9567 0002059 268.3395  91.7528 14.98328331150306,6950.198,96.107,573.494,570.632,0.0
49144.0,STARLINK-3100,PAYLOAD,2024-06-09 05:01:05,14.98328743,0.0002726,69.9996,104.283,270.9663,89.1183,-2.5076e-05,-3.92e-06,0.0,0 STARLINK-3100,1 49144U 21082Q   24161.20909043 -.00000392  00000-0 -25076-4 0  9996,2 49144  69.9996 104.2830 0002726 270.9663  89.1183 14.98328743150342,6950.197,96.107,573.956,570.167,0.0
49144.0,STARLINK-3100,PAYLOAD,2024-06-09 06:37:13,14.98329579,0.000271,69.9998,104.1149,270.42,89.6648,-1.4803e-05,-2.7e-06,0.0,0 STARLINK-3100,1 49144U 21082Q   24161.27584965 -.00000270  00000-0 -14803-4 0  9996,2 49144  69.9998 104.1149 0002710 270.4200  89.6648 14.98329579150351,6950.194,96.107,573.943,570.176,0.0
49144.0,STARLINK-3100,PAYLOAD,2024-06-09 22:38:34,14.98329944,0.0002681,69.9997,102.4316,270.0179,90.0673,-1.6794e-05,-2.93e-06,0.0,0 STARLINK-3100,1 49144U 21082Q   24161.94344981 -.00000293  00000-0 -16794-4 0  9998,2 49144  69.9997 102.4316 0002681 270.0179  90.0673 14.98329944150456,6950.193,96.107,573.921,570.195,0.0
49144.0,STARLINK-3100,PAYLOAD,2024-06-10 05:03:05,14.98333526,0.0002517,70.0003,101.7601,253.2139,106.8744,2.6507e-05,2.23e-06,0.0,0 STARLINK-3100,1 49144U 21082Q   24162.21048563  .00000223  00000-0  26507-4 0  9990,2 49144  70.0003 101.7601 0002517 253.2139 106.8744 14.98333526150493,6950.182,96.107,573.796,570.298,0.0
49144.0,STARLINK-3100,PAYLOAD,2024-06-10 22:40:34,14.98327307,0.0002447,70.0003,99.9085,256.1751,103.9135,6.4237e-05,6.74e-06,0.0,0 STARLINK-3100,1 49144U 21082Q   24162.94484904  .00000674  00000-0  64237-4 0  9995,2 49144  70.0003  99.9085 0002447 256.1751 103.9135 14.98327307150606,6950.201,96.107,573.767,570.366,0.0
49144.0,STARLINK-3100,PAYLOAD,2024-06-11 05:05:07,14.98327469,0.0002495,70.0,99.233,268.7699,91.3174,0.0001124,1.248e-05,0.0,0 STARLINK-3100,1 49144U 21082Q   24163.21188850  .00001248  00000-0  11240-3 0  9990,2 49144  70.0000  99.2330 0002495 268.7699  91.3174 14.98327469150648,6950.201,96.107,573.8,570.332,0.0
49144.0,STARLINK-3100,PAYLOAD,2024-06-11 13:05:47,14.98338719,0.0002633,69.9998,98.3919,270.9112,89.1745,-9.0502e-05,-1.173e-05,0.0,0 STARLINK-3100,1 49144U 21082Q   24163.54568553 -.00001173  00000-0 -90502-4 0  9996,2 49144  69.9998  98.3919 0002633 270.9112  89.1745 14.98338719150697,6950.166,96.106,573.861,570.201,0.0
49144.0,STARLINK-3100,PAYLOAD,2024-06-12 05:07:07,14.98327394,0.000258,69.9996,96.7079,265.8865,94.1999,0.00021095,2.425e-05,0.0,0 STARLINK-3100,1 49144U 21082Q   24164.21328418  .00002425  00000-0  21095-3 0  9994,2 49144  69.9996  96.7079 0002580 265.8865  94.1999 14.98327394150798,6950.201,96.107,573.859,570.273,0.0
49144.0,STARLINK-3100,PAYLOAD,2024-06-12 22:44:36,14.98324885,0.0002514,69.9993,94.8543,264.6673,95.4199,6.4782e-06,-1.6e-07,0.0,0 STARLINK-3100,1 49144U 21082Q   24164.94764946 -.00000016  00000-0  64782-5 0  9991,2 49144  69.9993  94.8543 0002514 264.6673  95.4199 14.98324885150902,6950.209,96.107,573.821,570.326,0.0
49144.0,STARLINK-3100,PAYLOAD,2024-06-13 05:09:09,14.98324952,0.0002521,69.9995,94.1814,261.3396,98.7477,7.2728e-06,-6e-08,0.0,0 STARLINK-3100,1 49144U 21082Q   24165.21469016 -.00000006  00000-0  72728-5 0  9990,2 49144  69.9995  94.1814 0002521 261.3396  98.7477 14.98324952150946,6950.209,96.107,573.826,570.321,0.0
49144.0,STARLINK-3100,PAYLOAD,2024-06-13 13:09:49,14.98330109,0.0002769,70.0001,93.3413,272.7313,87.3529,-6.1393e-06,-1.66e-06,0.0,0 STARLINK-3100,1 49144U 21082Q   24165.54848757 -.00000166  00000-0 -61393-5 0  9993,2 49144  70.0001  93.3413 0002769 272.7313  87.3529 14.98330109150990,6950.193,96.107,573.982,570.133,0.0
49144.0,STARLINK-3100,PAYLOAD,2024-06-13 22:46:37,14.98330554,0.0002852,69.9999,92.3312,270.9172,89.166,8.2737e-06,6e-08,0.0,0 STARLINK-3100,1 49144U 21082Q   24165.94904634  .00000006  00000-0  82737-5 0  9990,2 49144  69.9999  92.3312 0002852 270.9172  89.1660 14.98330554151054,6950.191,96.107,574.038,570.074,0.0
49144.0,STARLINK-3100,PAYLOAD,2024-06-14 05:11:09,14.98335376,0.000275,70.0001,91.6582,270.6563,89.428,2.5897e-05,2.16e-06,0.0,0 STARLINK-3100,1 49144U 21082Q   24166.21608264  .00000216  00000-0  25897-4 0  9997,2 49144  70.0001  91.6582 0002750 270.6563  89.4280 14.98335376151092,6950.176,96.107,573.953,570.13,0.0
49144.0,STARLINK-3100,PAYLOAD,2024-06-14 22:48:38,14.9832452,0.0002761,70.0001,89.8066,273.5358,86.5485,5.6076e-05,5.76e-06,0.0,0 STARLINK-3100,1 49144U 21082Q   24166.95044873  .00000576  00000-0  56076-4 0  9990,2 49144  70.0001  89.8066 0002761 273.5358  86.5485 14.98324520151201,6950.21,96.107,573.994,570.156,0.0
49144.0,STARLINK-3100,PAYLOAD,2024-06-15 11:37:43,14.9832964,0.0002827,70.0001,88.4604,272.2222,87.8613,5.2575e-05,5.34e-06,0.0,0 STARLINK-3100,1 49144U 21082Q   24167.48452640  .00000534  00000-0  52575-4 0  9998,2 49144  70.0001  88.4604 0002827 272.2222  87.8613 14.98329640151286,6950.194,96.107,574.024,570.094,0.0
49144.0,STARLINK-3100,PAYLOAD,2024-06-15 22:50:39,14.98335258,0.0002864,69.9999,87.2823,270.5107,89.5724,4.7925e-05,4.79e-06,0.0,0 STARLINK-3100,1 49144U 21082Q   24167.95184200  .00000479  00000-0  47925-4 0  9995,2 49144  69.9999  87.2823 0002864 270.5107  89.5724 14.98335258151355,6950.177,96.107,574.032,570.051,0.0
49144.0,STARLINK-3100,PAYLOAD,2024-06-16 11:39:43,14.98335405,0.0002825,69.9996,85.9342,274.9675,85.1161,-3.2426e-05,-4.8e-06,0.0,0 STARLINK-3100,1 49144U 21082Q   24168.48592189 -.00000480  00000-0 -32426-4 0  9997,2 49144  69.9996  85.9342 0002825 274.9675  85.1161 14.98335405151438,6950.176,96.107,574.005,570.078,0.0
